{"fetched_at":"2026-03-29T16:36:15Z","count":15609,"tles":[{"name":"STARLINK-31401","line1":"1 59417U 24064V   26087.90024715 -.00001975  00000+0 -62236-4 0  9999","line2":"2 59417  43.0083 300.7673 0001833 270.5615  89.5027 15.27582247111998","category":"Starlink"}]}